OBJECT_NAME,OBJECT_ID,EPOCH,MEAN_MOTION,ECCENTRICITY,INCLINATION,RA_OF_ASC_NODE,ARG_OF_PERICENTER,MEAN_ANOMALY,EPHEMERIS_TYPE,CLASSIFICATION_TYPE,NORAD_CAT_ID,ELEMENT_SET_NO,REV_AT_EPOCH,BSTAR,MEAN_MOTION_DOT,MEAN_MOTION_DDOT
COSMOS 2507 (RODNIK-S 13),2015-050A,2026-06-12T21:15:09.767808,12.42926318,.001041,82.4921,82.3477,5.9355,354.1846,0,U,40920,999,48632,-.46278E-3,-.54E-6,0
COSMOS 2508 (RODNIK-S 14),2015-050B,2026-06-12T20:10:20.014752,12.42914002,.001531,82.4875,80.8825,35.7895,324.4207,0,U,40921,999,48630,-.35369E-4,.5E-7,0
COSMOS 2509 (RODNIK-S 15),2015-050C,2026-06-12T20:39:27.974880,12.42883273,.0015804,82.4883,80.9718,51.7186,308.5312,0,U,40922,999,48634,-.45312E-3,-.53E-6,0
LQSAT,2015-057A,2026-06-12T20:51:16.111872,14.76777732,.0015572,97.6677,157.4572,289.2010,70.7515,0,U,40958,999,57467,.61639E-4,.384E-5,0
LINGQIAO VIDEO A,2015-057B,2026-06-12T21:23:46.189248,14.77388359,.0015264,97.6618,158.9050,285.8297,74.1231,0,U,40959,999,57477,.14454E-3,.981E-5,0
LINGQIAO VIDEO B,2015-057C,2026-06-12T20:50:37.518720,14.77492161,.001541,97.6583,160.0478,285.9073,74.0439,0,U,40960,999,57481,.39831E-4,.236E-5,0
JILIN-1,2015-057D,2026-06-12T19:35:25.326240,14.78153768,.0015338,97.6507,163.4000,278.8014,81.1461,0,U,40961,999,57496,.11571E-3,.79E-5,0
FOX-1A (AO-85),2015-058D,2026-06-11T17:14:16.526976,14.90943463,.0130128,64.7758,295.9784,58.7261,302.6519,0,U,40967,999,11275,.20996848E-3,.2264E-4,0
ELEKTRO-L 2,2015-074A,2026-06-12T01:09:11.108736,1.00271076,.00008075,6.6796,70.5874,263.0780,289.5215,0,U,41105,999,3845,0,-.106E-5,0
DAMPE,2015-078A,2026-06-12T20:29:54.626208,15.30775248,.0013801,97.4558,169.2993,90.6291,269.6531,0,U,41173,999,58388,.51116E-4,.1446E-4,0
ORBCOMM FM114,2015-081A,2026-06-11T08:42:09.406368,14.58851913,.0002127,47.0059,29.5421,183.9472,176.1397,0,U,41179,999,55690,.11441E-3,.369E-5,0
ORBCOMM FM110,2015-081D,2026-06-12T20:35:12.546240,14.58874429,.0002645,47.0031,21.9133,49.9009,310.2108,0,U,41182,999,55699,.17699E-3,.666E-5,0
ORBCOMM FM112,2015-081F,2026-06-12T01:47:47.363136,14.58896525,.000343,47.0000,294.4222,195.8649,164.2129,0,U,41184,999,55820,.14000602E-3,.491E-5,0
ORBCOMM FM113,2015-081G,2026-06-12T01:13:53.961600,14.58853293,.0001998,47.0017,294.9070,204.7602,155.3188,0,U,41185,999,55818,.10704795E-3,.335E-5,0
ORBCOMM FM108,2015-081J,2026-06-12T20:03:15.314688,14.58866418,.0002703,47.0056,202.7729,207.0496,153.0250,0,U,41187,999,55944,.11637E-3,.379E-5,0
ORBCOMM FM117,2015-081K,2026-06-12T19:13:34.567392,14.58862442,.0003263,46.9997,201.5700,206.9100,153.1617,0,U,41188,999,55948,.11174E-3,.357E-5,0
ORBCOMM FM116,2015-081L,2026-06-12T02:19:17.729472,14.58875396,.00008246,47.0032,294.6908,26.2371,333.8557,0,U,41189,999,55819,.14507672E-3,.515E-5,0
CHUBUSAT-2,2016-012B,2026-06-12T19:30:49.987584,15.20837979,.0008867,30.9980,350.0920,32.4187,327.6998,0,U,41338,999,56775,.26983E-3,.6229E-4,0
CHUBUSAT-3,2016-012C,2026-06-12T20:47:47.538816,15.18522588,.0009248,31.0059,359.2212,21.0769,339.0251,0,U,41339,999,56754,.23026E-3,.4986E-4,0
HORYU-4,2016-012D,2026-06-12T04:16:37.128000,15.91940402,.0003837,30.9835,115.7146,236.1046,123.9250,0,U,41340,999,57001,.10937709E-2,.381515E-2,.49652686E-4
ZIYUAN 3-02 (ZY 3-02),2016-033A,2026-06-12T20:22:32.553696,15.21440997,.0011348,97.3842,239.7062,307.2471,52.7729,0,U,41556,999,55732,.23721E-3,.5268E-4,0
CARTOSAT-2C,2016-040A,2026-06-12T20:17:08.071584,15.19282908,.0010146,97.4489,223.8830,144.9117,215.2788,0,U,41599,999,55305,.22563E-3,.4697E-4,0
LAPAN-A3,2016-040E,2026-06-12T21:12:00.216576,15.33078821,.001137,97.1483,160.1703,40.0799,320.1281,0,U,41603,999,55415,.11407E-3,.3576E-4,0
GAOFEN-3,2016-049A,2026-06-12T20:26:45.601152,14.42214308,.0001295,98.4013,171.7029,98.3950,261.7387,0,U,41727,999,51802,-.3202E-4,-.149E-5,0
PRATHAM,2016-059A,2026-06-12T06:21:48.669696,14.67188902,.0030004,97.8323,160.3391,232.7139,127.1330,0,U,41783,999,51879,.1096768E-3,.574E-5,0
ALSAT-1N,2016-059G,2026-06-12T19:48:20.566656,14.69299545,.0025106,97.8008,167.3699,198.9360,161.0915,0,U,41789,999,51936,.12413E-3,.689E-5,0
CAS-2T & KS-1Q,2016-066G,2026-06-12T19:23:21.621696,14.44680695,.0342652,98.3820,239.5941,142.7227,219.8287,0,U,41847,999,50416,.23742E-3,.1644E-4,0
YUNHAI-1 01,2016-068A,2026-06-12T21:45:00.653184,14.32702813,.0006338,98.5834,174.9527,53.5810,306.5958,0,U,41857,999,50121,.14348E-3,.347E-5,0
RESOURCESAT-2A,2016-074A,2026-06-12T20:20:55.913568,14.21613725,.0003362,98.7529,237.3875,91.5603,268.5960,0,U,41877,999,49368,-.64971E-4,-.187E-5,0
